{
  "type": "Feature",
  "properties": {
    "farm_id": "FARM_20260903120108440660",
    "farm_name": "xy",
    "farmer_name": "x",
    "area_ha": 0.6429622347500176,
    "created_at": "2026-09-03T12:01:08.440647+00:00",
    "updated_at": "2026-09-03T12:01:08.440647+00:00",
    "crs": "EPSG:4326"
  },
  "geometry": {
    "type": "Polygon",
    "coordinates": [
      [
        [
          88.36934998343224,
          22.576739819149537
        ],
        [
          88.36984298999641,
          22.57674609812291
        ],
        [
          88.36968998795896,
          22.57591727117523
        ],
        [
          88.3699075908554,
          22.575826225487432
        ],
        [
          88.36980898954317,
          22.575546809033995
        ],
        [
          88.36921738166677,
          22.575725761209526
        ],
        [
          88.36934998343224,
          22.576739819149537
        ]
      ]
    ]
  }
}