{
  "type": "Feature",
  "properties": {
    "farm_id": "FARM_20260901064832716171",
    "farm_name": "Maidan",
    "farmer_name": "J Chakraborty",
    "area_ha": 42.08802925952673,
    "created_at": "2026-09-01T06:48:32.716157+00:00",
    "updated_at": "2026-09-01T06:48:32.716157+00:00",
    "crs": "EPSG:4326"
  },
  "geometry": {
    "type": "Polygon",
    "coordinates": [
      [
        [
          88.3448859165369,
          22.55490270814967
        ],
        [
          88.3414564893742,
          22.54764693670802
        ],
        [
          88.34678768978165,
          22.546264841745682
        ],
        [
          88.34843984813386,
          22.55478754014854
        ],
        [
          88.3448859165369,
          22.55490270814967
        ]
      ]
    ]
  }
}