{
  "type": "Feature",
  "properties": {
    "farm_id": "FARM_20260901171202851780",
    "farm_name": "n1",
    "farmer_name": "n",
    "area_ha": 0.2597523397895042,
    "created_at": "2026-09-01T17:12:02.851763+00:00",
    "updated_at": "2026-09-01T17:12:02.851763+00:00",
    "crs": "EPSG:4326"
  },
  "geometry": {
    "type": "Polygon",
    "coordinates": [
      [
        [
          87.9700390487796,
          22.467768285906473
        ],
        [
          87.97075420654704,
          22.467892449959052
        ],
        [
          87.97076287512613,
          22.467515952167147
        ],
        [
          87.97007372309616,
          22.467499930962433
        ],
        [
          87.9700390487796,
          22.467768285906473
        ]
      ]
    ]
  }
}