{
  "type": "Feature",
  "properties": {
    "farm_id": "FARM_20260908045130704357",
    "farm_name": "sealdah athletic club",
    "farmer_name": "sealdah athletic club",
    "area_ha": 0.651329031547904,
    "created_at": "2026-09-08T04:51:30.704333+00:00",
    "updated_at": "2026-09-08T04:51:30.704333+00:00",
    "crs": "EPSG:4326"
  },
  "geometry": {
    "type": "Polygon",
    "coordinates": [
      [
        [
          88.37182188377409,
          22.57150475520679
        ],
        [
          88.37251025666234,
          22.571266994893932
        ],
        [
          88.3722159903898,
          22.570548859214924
        ],
        [
          88.37149871634978,
          22.570818160533392
        ],
        [
          88.37182188377409,
          22.57150475520679
        ]
      ]
    ]
  }
}