{
  "type": "Feature",
  "properties": {
    "farm_id": "FARM_20260901154658031325",
    "farm_name": "x1",
    "farmer_name": "x",
    "area_ha": 0.2804966691881418,
    "created_at": "2026-09-01T15:46:58.031300+00:00",
    "updated_at": "2026-09-01T15:46:58.031300+00:00",
    "crs": "EPSG:4326"
  },
  "geometry": {
    "type": "Polygon",
    "coordinates": [
      [
        [
          88.37301310773358,
          22.581389495740353
        ],
        [
          88.37337171978334,
          22.581291251589747
        ],
        [
          88.37320620652946,
          22.580667217664512
        ],
        [
          88.3728219793324,
          22.580796391099923
        ],
        [
          88.37301310773358,
          22.581389495740353
        ]
      ]
    ]
  }
}